NOAA 15                 
1 25338U 98030A   22263.48448204  .00000099  00000+0  59571-4 0  9998
2 25338  98.6388 291.7521 0010744  26.6885 333.4846 14.26172000266810
NOAA 18                 
1 28654U 05018A   22263.46288694  .00000138  00000+0  98305-4 0  9991
2 28654  98.9417 333.7919 0015106  65.5437 294.7308 14.12777639893485
NOAA 19                 
1 33591U 09005A   22263.47490390  .00000127  00000+0  93763-4 0  9997
2 33591  99.1410 299.5760 0012912 281.8735  78.0988 14.12610899701867
METOP-B                 
1 38771U 12049A   22263.44528743  .00000059  00000+0  47091-4 0  9992
2 38771  98.7203 321.7691 0001824 103.0581 348.4678 14.21474237519223
SARAL                   
1 39086U 13009A   22262.85382466  .00000065  00000+0  40502-4 0  9990
2 39086  98.5495  87.1024 0001509  39.8347 320.2948 14.32063045499995
METOP-C                 
1 43689U 18087A   22263.46426085  .00000054  00000+0  44368-4 0  9991
2 43689  98.6750 321.8689 0003762 117.5099 242.6461 14.21508232200807
ANGELS                  
1 44876U 19092D   22263.11652762  .00002674  00000+0  13342-3 0  9999
2 44876  97.4770  85.3568 0012782  34.8438 325.3630 15.18321903152609
